[{"OBJECT_NAME":"SUOMI NPP","OBJECT_ID":"2011-061A","EPOCH":"2026-03-09T22:54:45.266976","MEAN_MOTION":14.19543747,"ECCENTRICITY":4.741e-5,"INCLINATION":98.7869,"RA_OF_ASC_NODE":10.5553,"ARG_OF_PERICENTER":227.8224,"MEAN_ANOMALY":132.2912,"EPHEMERIS_TYPE":0,"CLASSIFICATION_TYPE":"U","NORAD_CAT_ID":37849,"ELEMENT_SET_NO":999,"REV_AT_EPOCH":74436,"BSTAR":8.9047431e-5,"MEAN_MOTION_DOT":1.43e-6,"MEAN_MOTION_DDOT":0},{"OBJECT_NAME":"NOAA 7","OBJECT_ID":"1981-059A","EPOCH":"2026-03-09T19:15:20.101536","MEAN_MOTION":14.17773397,"ECCENTRICITY":0.00113625,"INCLINATION":98.8059,"RA_OF_ASC_NODE":136.8524,"ARG_OF_PERICENTER":187.4258,"MEAN_ANOMALY":172.6751,"EPHEMERIS_TYPE":0,"CLASSIFICATION_TYPE":"U","NORAD_CAT_ID":12553,"ELEMENT_SET_NO":999,"REV_AT_EPOCH":31066,"BSTAR":6.0823334e-5,"MEAN_MOTION_DOT":8.0e-7,"MEAN_MOTION_DDOT":0}]
